STARLINK-31630          
1 59271U 24050T   26068.56880718 -.00002063  00000+0 -57526-4 0  9991
2 59271  53.1600 168.5079 0001409  92.3163 267.7999 15.30200807110710
STARLINK-34054          
1 64141U 25111U   26068.42419102  .00020027  00000+0  73505-3 0  9994
2 64141  43.0041  79.2911 0001442 268.6319  91.4367 15.27592397 45420
